{
  "type": "FeatureCollection",
  "features": [
    {
      "type": "Feature",
      "properties": {
        "norad_id": 66968,
        "name": "STARLINK-36152",
        "group": "last-30-days",
        "lat": 42.53642757173517,
        "lon": -123.36837193772583,
        "alt_km": 301.1998740712497,
        "timestamp": "2025-12-17T17:50:17.975665+00:00",
        "meta_object_name": "STARLINK-36152",
        "meta_object_id": "2025-288K",
        "meta_epoch": "2025-12-16T14:00:03.000384",
        "meta_mean_motion": 15.91628269,
        "meta_eccentricity": 0.00016391,
        "meta_inclination": 43.0011,
        "meta_ra_of_asc_node": 143.755,
        "meta_arg_of_pericenter": 272.5242,
        "meta_mean_anomaly": 17.1845,
        "meta_ephemeris_type": 0,
        "meta_classification_type": "U",
        "meta_norad_cat_id": 66968,
        "meta_element_set_no": 999,
        "meta_rev_at_epoch": 245,
        "meta_bstar": -0.0042486776,
        "meta_mean_motion_dot": -0.01429785,
        "meta_mean_motion_ddot": 0.00057905283,
        "tle_line1": "1 66968U 25288K   25350.58336806 -.01429785  57905-3 -42487-2 0  9998",
        "tle_line2": "2 66968  43.0011 143.7550 0001639 272.5242  17.1845 15.91628269  2450"
      },
      "geometry": {
        "type": "Point",
        "coordinates": [
          -123.36837193772583,
          42.53642757173517
        ]
      }
    },
    {
      "type": "Feature",
      "properties": {
        "norad_id": 66969,
        "name": "STARLINK-36149",
        "group": "last-30-days",
        "lat": 40.27415525125901,
        "lon": -108.86917960913595,
        "alt_km": 301.0469554953861,
        "timestamp": "2025-12-17T17:50:17.975675+00:00",
        "meta_object_name": "STARLINK-36149",
        "meta_object_id": "2025-288L",
        "meta_epoch": "2025-12-16T14:00:03.000384",
        "meta_mean_motion": 15.91906646,
        "meta_eccentricity": 0.00016124,
        "meta_inclination": 43.001,
        "meta_ra_of_asc_node": 143.7294,
        "meta_arg_of_pericenter": 271.841,
        "meta_mean_anomaly": 28.0202,
        "meta_ephemeris_type": 0,
        "meta_classification_type": "U",
        "meta_norad_cat_id": 66969,
        "meta_element_set_no": 999,
        "meta_rev_at_epoch": 245,
        "meta_bstar": -0.0043315647,
        "meta_mean_motion_dot": -0.01478305,
        "meta_mean_motion_ddot": 0.00061725758,
        "tle_line1": "1 66969U 25288L   25350.58336806 -.01478305  61726-3 -43316-2 0  9999",
        "tle_line2": "2 66969  43.0010 143.7294 0001612 271.8410  28.0202 15.91906646  2451"
      },
      "geometry": {
        "type": "Point",
        "coordinates": [
          -108.86917960913595,
          40.27415525125901
        ]
      }
    },
    {
      "type": "Feature",
      "properties": {
        "norad_id": 66970,
        "name": "STARLINK-35703",
        "group": "last-30-days",
        "lat": 37.20382812383291,
        "lon": -98.04438867687698,
        "alt_km": 301.01178247392454,
        "timestamp": "2025-12-17T17:50:17.975685+00:00",
        "meta_object_name": "STARLINK-35703",
        "meta_object_id": "2025-288M",
        "meta_epoch": "2025-12-16T14:00:03.000384",
        "meta_mean_motion": 15.92129761,
        "meta_eccentricity": 0.00016434,
        "meta_inclination": 43.0011,
        "meta_ra_of_asc_node": 143.7085,
        "meta_arg_of_pericenter": 268.0465,
        "meta_mean_anomaly": 39.9977,
        "meta_ephemeris_type": 0,
        "meta_classification_type": "U",
        "meta_norad_cat_id": 66970,
        "meta_element_set_no": 999,
        "meta_rev_at_epoch": 245,
        "meta_bstar": -0.0043672224,
        "meta_mean_motion_dot": -0.01507537,
        "meta_mean_motion_ddot": 0.00064122949,
        "tle_line1": "1 66970U 25288M   25350.58336806 -.01507537  64123-3 -43672-2 0  9990",
        "tle_line2": "2 66970  43.0011 143.7085 0001643 268.0465  39.9977 15.92129761  2450"
      },
      "geometry": {
        "type": "Point",
        "coordinates": [
          -98.04438867687698,
          37.20382812383291
        ]
      }
    },
    {
      "type": "Feature",
      "properties": {
        "norad_id": 66971,
        "name": "STARLINK-35678",
        "group": "last-30-days",
        "lat": 42.33962929688575,
        "lon": -121.35132984129332,
        "alt_km": 301.15783650870617,
        "timestamp": "2025-12-17T17:50:17.975695+00:00",
        "meta_object_name": "STARLINK-35678",
        "meta_object_id": "2025-288N",
        "meta_epoch": "2025-12-16T14:00:03.000384",
        "meta_mean_motion": 15.91677671,
        "meta_eccentricity": 0.00016403,
        "meta_inclination": 43.0014,
        "meta_ra_of_asc_node": 143.752,
        "meta_arg_of_pericenter": 268.1448,
        "meta_mean_anomaly": 22.9013,
        "meta_ephemeris_type": 0,
        "meta_classification_type": "U",
        "meta_norad_cat_id": 66971,
        "meta_element_set_no": 999,
        "meta_rev_at_epoch": 245,
        "meta_bstar": -0.0042640491,
        "meta_mean_motion_dot": -0.01438535,
        "meta_mean_motion_ddot": 0.00058584621,
        "tle_line1": "1 66971U 25288N   25350.58336806 -.01438535  58585-3 -42640-2 0  9991",
        "tle_line2": "2 66971  43.0014 143.7520 0001640 268.1448  22.9013 15.91677671  2457"
      },
      "geometry": {
        "type": "Point",
        "coordinates": [
          -121.35132984129332,
          42.33962929688575
        ]
      }
    },
    {
      "type": "Feature",
      "properties": {
        "norad_id": 66972,
        "name": "STARLINK-34846",
        "group": "last-30-days",
        "lat": 41.920311603406496,
        "lon": -117.93067032141708,
        "alt_km": 301.1283743326039,
        "timestamp": "2025-12-17T17:50:17.975707+00:00",
        "meta_object_name": "STARLINK-34846",
        "meta_object_id": "2025-288P",
        "meta_epoch": "2025-12-16T14:00:03.000384",
        "meta_mean_motion": 15.91736626,
        "meta_eccentricity": 0.00016766,
        "meta_inclination": 43.0012,
        "meta_ra_of_asc_node": 143.7459,
        "meta_arg_of_pericenter": 266.1926,
        "meta_mean_anomaly": 27.2212,
        "meta_ephemeris_type": 0,
        "meta_classification_type": "U",
        "meta_norad_cat_id": 66972,
        "meta_element_set_no": 999,
        "meta_rev_at_epoch": 245,
        "meta_bstar": -0.0042777567,
        "meta_mean_motion_dot": -0.01447482,
        "meta_mean_motion_ddot": 0.0005928824,
        "tle_line1": "1 66972U 25288P   25350.58336806 -.01447482  59288-3 -42778-2 0  9996",
        "tle_line2": "2 66972  43.0012 143.7459 0001676 266.1926  27.2212 15.91736626  2450"
      },
      "geometry": {
        "type": "Point",
        "coordinates": [
          -117.93067032141708,
          41.920311603406496
        ]
      }
    },
    {
      "type": "Feature",
      "properties": {
        "norad_id": 66973,
        "name": "STARLINK-35778",
        "group": "last-30-days",
        "lat": 41.459339648725106,
        "lon": -114.90719804456533,
        "alt_km": 301.129387979061,
        "timestamp": "2025-12-17T17:50:17.975718+00:00",
        "meta_object_name": "STARLINK-35778",
        "meta_object_id": "2025-288Q",
        "meta_epoch": "2025-12-16T14:00:03.000384",
        "meta_mean_motion": 15.91794298,
        "meta_eccentricity": 0.00017107,
        "meta_inclination": 43.0013,
        "meta_ra_of_asc_node": 143.7406,
        "meta_arg_of_pericenter": 267.9414,
        "meta_mean_anomaly": 27.5857,
        "meta_ephemeris_type": 0,
        "meta_classification_type": "U",
        "meta_norad_cat_id": 66973,
        "meta_element_set_no": 999,
        "meta_rev_at_epoch": 245,
        "meta_bstar": -0.004298407,
        "meta_mean_motion_dot": -0.01458705,
        "meta_mean_motion_ddot": 0.00060167468,
        "tle_line1": "1 66973U 25288Q   25350.58336806 -.01458705  60167-3 -42984-2 0  9994",
        "tle_line2": "2 66973  43.0013 143.7406 0001710 267.9414  27.5857 15.91794298  2451"
      },
      "geometry": {
        "type": "Point",
        "coordinates": [
          -114.90719804456533,
          41.459339648725106
        ]
      }
    },
    {
      "type": "Feature",
      "properties": {
        "norad_id": 66974,
        "name": "STARLINK-35780",
        "group": "last-30-days",
        "lat": 40.9417711772598,
        "lon": -112.0404953982248,
        "alt_km": 301.0727152914078,
        "timestamp": "2025-12-17T17:50:17.975731+00:00",
        "meta_object_name": "STARLINK-35780",
        "meta_object_id": "2025-288R",
        "meta_epoch": "2025-12-16T14:00:03.000384",
        "meta_mean_motion": 15.91848995,
        "meta_eccentricity": 0.00016659,
        "meta_inclination": 43.0015,
        "meta_ra_of_asc_node": 143.7357,
        "meta_arg_of_pericenter": 267.747,
        "meta_mean_anomaly": 29.8137,
        "meta_ephemeris_type": 0,
        "meta_classification_type": "U",
        "meta_norad_cat_id": 66974,
        "meta_element_set_no": 999,
        "meta_rev_at_epoch": 245,
        "meta_bstar": -0.0043149367,
        "meta_mean_motion_dot": -0.01468355,
        "meta_mean_motion_ddot": 0.00060931785,
        "tle_line1": "1 66974U 25288R   25350.58336806 -.01468355  60932-3 -43149-2 0  9991",
        "tle_line2": "2 66974  43.0015 143.7357 0001665 267.7470  29.8137 15.91848995  2458"
      },
      "geometry": {
        "type": "Point",
        "coordinates": [
          -112.0404953982248,
          40.9417711772598
        ]
      }
    }
  ]
}